[{"OBJECT_NAME":"QIANFAN-23","OBJECT_ID":"2024-185E","EPOCH":"2026-03-09T22:52:44.891904","MEAN_MOTION":14.16398048,"ECCENTRICITY":0.00092256,"INCLINATION":88.9755,"RA_OF_ASC_NODE":67.6947,"ARG_OF_PERICENTER":47.6437,"MEAN_ANOMALY":312.5531,"EPHEMERIS_TYPE":0,"CLASSIFICATION_TYPE":"U","NORAD_CAT_ID":61556,"ELEMENT_SET_NO":999,"REV_AT_EPOCH":8209,"BSTAR":0.00033141265,"MEAN_MOTION_DOT":6.72e-6,"MEAN_MOTION_DDOT":0},{"OBJECT_NAME":"CZ-6A DEB","OBJECT_ID":"2022-151TZ","EPOCH":"2026-03-09T18:05:43.147104","MEAN_MOTION":13.77223533,"ECCENTRICITY":0.02192235,"INCLINATION":98.9428,"RA_OF_ASC_NODE":12.9866,"ARG_OF_PERICENTER":87.0097,"MEAN_ANOMALY":275.6117,"EPHEMERIS_TYPE":0,"CLASSIFICATION_TYPE":"U","NORAD_CAT_ID":54984,"ELEMENT_SET_NO":999,"REV_AT_EPOCH":16554,"BSTAR":0.002141763,"MEAN_MOTION_DOT":2.495e-5,"MEAN_MOTION_DDOT":0}]
